NORAD_CAT_ID,OBJECT_NAME,OBJECT_TYPE,EPOCH,MEAN_MOTION,ECCENTRICITY,INCLINATION,RA_OF_ASC_NODE,ARG_OF_PERICENTER,MEAN_ANOMALY,BSTAR,MEAN_MOTION_DOT,MEAN_MOTION_DDOT,TLE_LINE0,TLE_LINE1,TLE_LINE2,SEMIMAJOR_AXIS,PERIOD,APOGEE,PERIGEE,DECAYED
52853.0,STARLINK-4189,PAYLOAD,2022-12-14 21:36:25,15.08838033,0.0003047,53.2179,284.8919,25.7708,334.3435,0.00011058,1.472e-05,0.0,0 STARLINK-4189,1 52853U 22062Z   22348.90029952  .00001472  00000-0  11058-3 0  9992,2 52853  53.2179 284.8919 0003047  25.7708 334.3435 15.08838033 28156,6917.886,95.438,541.859,537.644,0.0
52853.0,STARLINK-4189,PAYLOAD,2022-12-15 05:33:21,15.08839445,0.0002935,53.2193,283.4038,24.2426,335.8704,8.244200000000001e-05,1.024e-05,0.0,0 STARLINK-4189,1 52853U 22062Z   22349.23149961  .00001024  00000-0  82442-4 0  9991,2 52853  53.2193 283.4038 0002935  24.2426 335.8704 15.08839445 27719,6917.882,95.438,541.7769999999998,537.717,0.0
52853.0,STARLINK-4189,PAYLOAD,2022-12-15 19:51:49,15.08849523,0.0002891,53.2185,280.728,23.4338,336.6785,0.00019524,2.821e-05,0.0,0 STARLINK-4189,1 52853U 22062Z   22349.82765154  .00002821  00000-0  19524-3 0  9990,2 52853  53.2185 280.7280 0002891  23.4338 336.6785 15.08849523 27809,6917.851,95.437,541.716,537.716,0.0
52853.0,STARLINK-4189,PAYLOAD,2022-12-16 00:37:58,15.08848388,0.0002955,53.2191,279.8365,24.8042,335.3091,0.0001267,1.729e-05,0.0,0 STARLINK-4189,1 52853U 22062Z   22350.02636907  .00001729  00000-0  12670-3 0  9998,2 52853  53.2191 279.8365 0002955  24.8042 335.3091 15.08848388 28329,6917.855,95.437,541.764,537.6759999999998,0.0
52853.0,STARLINK-4189,PAYLOAD,2022-12-16 05:24:07,15.08846873,0.0003018,53.219,278.9451,24.7812,335.3325,8.1526e-05,1.009e-05,0.0,0 STARLINK-4189,1 52853U 22062Z   22350.22509126  .00001009  00000-0  81526-4 0  9990,2 52853  53.2190 278.9451 0003018  24.7812 335.3325 15.08846873 27864,6917.859,95.437,541.812,537.637,0.0
52853.0,STARLINK-4189,PAYLOAD,2022-12-16 19:42:36,15.08830785,0.0003129,53.2187,276.2686,20.5803,339.5315,5.8235e-05,6.38e-06,0.0,0 STARLINK-4189,1 52853U 22062Z   22350.82126128  .00000638  00000-0  58235-4 0  9991,2 52853  53.2187 276.2686 0003129  20.5803 339.5315 15.08830785 28443,6917.909000000002,95.438,541.938,537.609,0.0
52853.0,STARLINK-4189,PAYLOAD,2022-12-17 03:39:33,15.08823626,0.0003032,53.2192,274.7812,24.1612,335.9522,-1.5317999999999998e-05,-5.32e-06,0.0,0 STARLINK-4189,1 52853U 22062Z   22351.15247028 -.00000532  00000-0 -15318-4 0  9991,2 52853  53.2192 274.7812 0003032  24.1612 335.9522 15.08823626 28495,6917.93,95.439,541.893,537.698,0.0
52853.0,STARLINK-4189,PAYLOAD,2022-12-17 11:36:28,15.0883566,0.0002966,53.2189,273.2949,22.3167,337.7953,-3.1248e-05,-7.86e-06,0.0,0 STARLINK-4189,1 52853U 22062Z   22351.48366388 -.00000786  00000-0 -31248-4 0  9999,2 52853  53.2189 273.2949 0002966  22.3167 337.7953 15.08835660 28057,6917.894,95.438,541.811,537.707,0.0
52853.0,STARLINK-4189,PAYLOAD,2022-12-17 19:33:24,15.08840525,0.0003185,53.2189,271.8082,18.9478,341.1633,-5.3322e-05,-1.137e-05,0.0,0 STARLINK-4189,1 52853U 22062Z   22351.81486232 -.00001137  00000-0 -53322-4 0  9995,2 52853  53.2189 271.8082 0003185  18.9478 341.1633 15.08840525 28105,6917.879,95.438,541.947,537.54,0.0
52853.0,STARLINK-4189,PAYLOAD,2022-12-18 11:27:15,15.08838445,0.0002994,53.2188,268.8347,24.5544,335.559,0.00011703,1.574e-05,0.0,0 STARLINK-4189,1 52853U 22062Z   22352.47726164  .00001574  00000-0  11703-3 0  9998,2 52853  53.2188 268.8347 0002994  24.5544 335.5590 15.08838445 28206,6917.885,95.438,541.821,537.679,0.0
52853.0,STARLINK-4189,PAYLOAD,2022-12-18 19:24:10,15.08836048,0.0002957,53.2193,267.3475,22.6752,337.4369999999999,0.00027427,4.079e-05,0.0,0 STARLINK-4189,1 52853U 22062Z   22352.80845927  .00004079  00000-0  27427-3 0  9997,2 52853  53.2193 267.3475 0002957  22.6752 337.4370 15.08836048 28256,6917.892,95.438,541.803,537.712,0.0
52853.0,STARLINK-4189,PAYLOAD,2022-12-19 00:10:20,15.08835991,0.000298,53.2193,266.4553,22.2517,337.8604,0.00019338,2.79e-05,0.0,0 STARLINK-4189,1 52853U 22062Z   22353.00718353  .00002790  00000-0  19338-3 0  9992,2 52853  53.2193 266.4553 0002980  22.2517 337.8604 15.08835991 28771,6917.893,95.438,541.819,537.696,0.0
52853.0,STARLINK-4189,PAYLOAD,2022-12-19 17:39:35,15.08840326,0.0003319,53.2181,263.1839,27.3378,332.7788,0.00010883,1.444e-05,0.0,0 STARLINK-4189,1 52853U 22062Z   22353.73582696  .00001444  00000-0  10883-3 0  9992,2 52853  53.2181 263.1839 0003319  27.3378 332.7788 15.08840326 28390,6917.879,95.438,542.04,537.448,0.0
52853.0,STARLINK-4189,PAYLOAD,2022-12-20 12:44:11,15.08857226,0.0003016,53.2185,259.6173,24.0034,336.1098,0.00018508,2.660000000000001e-05,0.0,0 STARLINK-4189,1 52853U 22062Z   22354.53069006  .00002660  00000-0  18508-3 0  9999,2 52853  53.2185 259.6173 0003016  24.0034 336.1098 15.08857226 28515,6917.828,95.436,541.779,537.606,0.0
52853.0,STARLINK-4189,PAYLOAD,2022-12-20 20:41:07,15.08848116,0.0002991,53.2178,258.1292,23.4225,336.6903,3.7934e-05,3.15e-06,0.0,0 STARLINK-4189,1 52853U 22062Z   22354.86189288  .00000315  00000-0  37934-4 0  9990,2 52853  53.2178 258.1292 0002991  23.4225 336.6903 15.08848116 29057,6917.856,95.437,541.79,537.651,0.0
52853.0,STARLINK-4189,PAYLOAD,2022-12-21 10:59:37,15.08825376,0.0003251,53.2186,255.4555,22.6458,337.4677,-6.7195e-05,-1.358e-05,0.0,0 STARLINK-4189,1 52853U 22062Z   22355.45807388 -.00001358  00000-0 -67195-4 0  9996,2 52853  53.2186 255.4555 0003251  22.6458 337.4677 15.08825376 29147,6917.925,95.438,542.039,537.5409999999998,0.0
52853.0,STARLINK-4189,PAYLOAD,2022-12-22 10:50:26,15.08813552,0.0003077,53.2178,250.9934,25.0424,335.0717,-0.0002646,-4.495e-05,0.0,0 STARLINK-4189,1 52853U 22062Z   22356.45169662 -.00004495  00000-0 -26460-3 0  9997,2 52853  53.2178 250.9934 0003077  25.0424 335.0717 15.08813552 29293,6917.9609999999975,95.439,541.955,537.698,0.0
52853.0,STARLINK-4189,PAYLOAD,2022-12-22 23:33:30,15.08828839,0.0003024,53.2183,248.6146,22.4762,337.6362,-2.641300000000001e-05,-7.09e-06,0.0,0 STARLINK-4189,1 52853U 22062Z   22356.98160545 -.00000709  00000-0 -26413-4 0  9999,2 52853  53.2183 248.6146 0003024  22.4762 337.6362 15.08828839 29373,6917.915,95.438,541.871,537.688,0.0
52853.0,STARLINK-4189,PAYLOAD,2022-12-23 02:44:16,15.08841291,0.0002926,53.218,248.0195,21.8782,338.2334,9.2251e-05,1.18e-05,0.0,0 STARLINK-4189,1 52853U 22062Z   22357.11407423  .00001180  00000-0  92251-4 0  9999,2 52853  53.2180 248.0195 0002926  21.8782 338.2334 15.08841291 29398,6917.876,95.437,541.766,537.717,0.0
52853.0,STARLINK-4189,PAYLOAD,2022-12-23 12:16:34,15.08836777,0.0003151,53.218,246.2362,20.545,339.5668,0.00025608,3.789e-05,0.0,0 STARLINK-4189,1 52853U 22062Z   22357.51151401  .00003789  00000-0  25608-3 0  9993,2 52853  53.2180 246.2362 0003151  20.5450 339.5668 15.08836777 28962,6917.89,95.438,541.935,537.575,0.0
52853.0,STARLINK-4189,PAYLOAD,2022-12-23 18:38:07,15.08834318,0.000304,53.2182,245.0462,20.5649,339.5465,0.00026055,3.86e-05,0.0,0 STARLINK-4189,1 52853U 22062Z   22357.77647645  .00003860  00000-0  26055-3 0  9998,2 52853  53.2182 245.0462 0003040  20.5649 339.5465 15.08834318 29009,6917.898,95.438,541.866,537.66,0.0
52853.0,STARLINK-4189,PAYLOAD,2022-12-24 02:35:03,15.0883353,0.0003058,53.2179,243.5589,22.2415,337.871,0.00026481,3.928e-05,0.0,0 STARLINK-4189,1 52853U 22062Z   22358.10767792  .00003928  00000-0  26481-3 0  9990,2 52853  53.2179 243.5589 0003058  22.2415 337.8710 15.08833530 29545,6917.9,95.438,541.881,537.65,0.0
52853.0,STARLINK-4189,PAYLOAD,2022-12-24 12:07:20,15.09014861,0.0004508,53.2181,241.7755,31.6963,328.43,-0.0018911,-0.00030411,0.0,0 STARLINK-4189,1 52853U 22062Z   22358.50509699 -.00030411  00000-0 -18911-2 0  9991,2 52853  53.2181 241.7755 0004508  31.6963 328.4300 15.09014861 29603,6917.346,95.426,542.3290000000002,536.0930000000002,0.0
52853.0,STARLINK-4189,PAYLOAD,2022-12-24 20:04:14,15.08989354,0.0004356,53.2181,240.2886,32.0237,328.102,-0.0018527,-0.00029781,0.0,0 STARLINK-4189,1 52853U 22062Z   22358.83628207 -.00029781  00000-0 -18527-2 0  9995,2 52853  53.2181 240.2886 0004356  32.0237 328.1020 15.08989354 29650,6917.424,95.428,542.302,536.276,0.0
52853.0,STARLINK-4189,PAYLOAD,2022-12-25 05:36:36,15.08845282,0.0003043,53.2178,238.5049,20.8335,339.2781,-5.1745e-05,-1.112e-05,0.0,0 STARLINK-4189,1 52853U 22062Z   22359.23375935 -.00001112  00000-0 -51745-4 0  9996,2 52853  53.2178 238.5049 0003043  20.8335 339.2781 15.08845282 29718,6917.864000000001,95.437,541.8340000000002,537.624,0.0
52853.0,STARLINK-4189,PAYLOAD,2022-12-25 08:47:22,15.08845804,0.0003002,53.218,237.91,22.0763,338.0358,-3.0794000000000004e-05,-7.79e-06,0.0,0 STARLINK-4189,1 52853U 22062Z   22359.36623765 -.00000779  00000-0 -30794-4 0  9996,2 52853  53.2180 237.9100 0003002  22.0763 338.0358 15.08845804 29241,6917.863,95.437,541.804,537.651,0.0
52853.0,STARLINK-4189,PAYLOAD,2022-12-25 19:55:05,15.08834365,0.0003052,53.2183,235.8289,24.2338,335.8798,-0.00013258,-2.398e-05,0.0,0 STARLINK-4189,1 52853U 22062Z   22359.82992745 -.00002398  00000-0 -13258-3 0  9998,2 52853  53.2183 235.8289 0003052  24.2338 335.8798 15.08834365 29801,6917.898,95.438,541.874,537.651,0.0
52853.0,STARLINK-4189,PAYLOAD,2022-12-26 08:38:10,15.08839993,0.0003094,53.2177,233.4497,22.9383,337.1747,-9.1586e-05,-1.746e-05,0.0,0 STARLINK-4189,1 52853U 22062Z   22360.35984344 -.00001746  00000-0 -91586-4 0  9991,2 52853  53.2177 233.4497 0003094  22.9383 337.1747 15.08839993 29395,6917.88,95.438,541.886,537.605,0.0
52853.0,STARLINK-4189,PAYLOAD,2022-12-26 16:35:05,15.08840369,0.0003122,53.2179,231.9632,24.302,335.8119,-9.1651e-06,-4.35e-06,0.0,0 STARLINK-4189,1 52853U 22062Z   22360.69104016 -.00000435  00000-0 -91651-5 0  9996,2 52853  53.2179 231.9632 0003122  24.3020 335.8119 15.08840369 29934,6917.879,95.438,541.904,537.5840000000002,0.0
